{
    "links": {
        "self": "http://www.neowsapp.com/rest/v1/neo/3591889?api_key=iIulBulltgU6a56xZRHN4H3l9WmuAYTsLGpBGhQ2"
    },
    "id": "3591889",
    "neo_reference_id": "3591889",
    "name": "(2011 YY62)",
    "designation": "2011 YY62",
    "nasa_jpl_url": "http://ssd.jpl.nasa.gov/sbdb.cgi?sstr=3591889",
    "absolute_magnitude_h": 22.9,
    "estimated_diameter": {
        "kilometers": {
            "estimated_diameter_min": 0.0699125232,
            "estimated_diameter_max": 0.1563291544
        },
        "meters": {
            "estimated_diameter_min": 69.9125232246,
            "estimated_diameter_max": 156.3291544087
        },
        "miles": {
            "estimated_diameter_min": 0.0434416145,
            "estimated_diameter_max": 0.097138403
        },
        "feet": {
            "estimated_diameter_min": 229.3718026961,
            "estimated_diameter_max": 512.8909429502
        }
    },
    "is_potentially_hazardous_asteroid": false,
    "close_approach_data": [
        {
            "close_approach_date": "2011-12-20",
            "close_approach_date_full": "2011-Dec-20 02:08",
            "epoch_date_close_approach": 1324346880000,
            "relative_velocity": {
                "kilometers_per_second": "15.8732679615",
                "kilometers_per_hour": "57143.7646614958",
                "miles_per_hour": "35506.9131031389"
            },
            "miss_distance": {
                "astronomical": "0.0482465104",
                "lunar": "18.7678925456",
                "kilometers": "7217575.190772848",
                "miles": "4484793.2609193824"
            },
            "orbiting_body": "Earth"
        },
        {
            "close_approach_date": "2081-01-01",
            "close_approach_date_full": "2081-Jan-01 02:17",
            "epoch_date_close_approach": 3502923420000,
            "relative_velocity": {
                "kilometers_per_second": "19.7139030673",
                "kilometers_per_hour": "70970.051042267",
                "miles_per_hour": "44098.0297712353"
            },
            "miss_distance": {
                "astronomical": "0.1359918356",
                "lunar": "52.9008240484",
                "kilometers": "20344088.943150172",
                "miles": "12641230.6876174936"
            },
            "orbiting_body": "Earth"
        }
    ],
    "orbital_data": {
        "orbit_id": "8",
        "orbit_determination_date": "2017-04-06 08:51:35",
        "first_observation_date": "2011-12-31",
        "last_observation_date": "2012-01-24",
        "data_arc_in_days": 24,
        "observations_used": 59,
        "orbit_uncertainty": "7",
        "minimum_orbit_intersection": ".00157574",
        "jupiter_tisserand_invariant": "3.144",
        "epoch_osculation": "2459000.5",
        "eccentricity": ".6590734024398127",
        "semi_major_axis": "2.460623506381642",
        "inclination": "5.439588293306847",
        "ascending_node_longitude": "262.6626628471598",
        "orbital_period": "1409.828155767448",
        "perihelion_distance": ".8388919999073108",
        "perihelion_argument": "130.0051322737662",
        "aphelion_distance": "4.082355012855973",
        "perihelion_time": "2458712.092747196362",
        "mean_anomaly": "73.64486982655782",
        "mean_motion": ".2553502698376965",
        "equinox": "J2000",
        "orbit_class": {
            "orbit_class_type": "APO",
            "orbit_class_description": "Near-Earth asteroid orbits which cross the Earth’s orbit similar to that of 1862 Apollo",
            "orbit_class_range": "a (semi-major axis) > 1.0 AU; q (perihelion) < 1.017 AU"
        }
    },
    "is_sentry_object": false
}